SL-8 R/B                
1 07004U 73107B   17345.68105760  .00013438  00000-0  18042-3 0  9999
2 07004  73.9340  36.2668 0161999 221.4153 137.4688 15.43887485264577
